{"type": "FeatureCollection", "features": [ {"type": "Feature", "properties": {"norad_id": 32289, "name": "YAOGAN-3", "group": "resource", "lat": 29.18834675930359, "lon": -161.18706475100242, "alt_km": 596.7423499119459, "timestamp": "2025-12-13T18:50:04.084947+00:00", "meta": {"OBJECT_NAME": "YAOGAN-3", "OBJECT_ID": "2007-055A", "EPOCH": "2025-12-13T08:29:25.573344", "MEAN_MOTION": 14.89863391, "ECCENTRICITY": 0.00012435, "INCLINATION": 97.8368, "RA_OF_ASC_NODE": 13.9732, "ARG_OF_PERICENTER": 78.3934, "MEAN_ANOMALY": 281.7423, "EPHEMERIS_TYPE": 0, "CLASSIFICATION_TYPE": "U", "NORAD_CAT_ID": 32289, "ELEMENT_SET_NO": 999, "REV_AT_EPOCH": 97818, "BSTAR": 0.00044415608, "MEAN_MOTION_DOT": 4.214e-05, "MEAN_MOTION_DDOT": 0}, "tle": {"line1": "1 32289U 07055A   25347.35376821  .00004214  00000+0  44416-3 0  9999", "line2": "2 32289  97.8368  13.9732 0001243  78.3934 281.7423 14.89863391978188"}}, "geometry": {"type": "Point", "coordinates": [-161.18706475100242, 29.18834675930359]}}, {"type": "Feature", "properties": {"norad_id": 32376, "name": "COSMO-SKYMED 2", "group": "resource", "lat": 40.01905233937445, "lon": 162.41361298859687, "alt_km": 618.6211339636275, "timestamp": "2025-12-13T18:50:04.084959+00:00", "meta": {"OBJECT_NAME": "COSMO-SKYMED 2", "OBJECT_ID": "2007-059A", "EPOCH": "2025-12-13T07:18:38.868192", "MEAN_MOTION": 14.82167811, "ECCENTRICITY": 0.00014996, "INCLINATION": 97.8811, "RA_OF_ASC_NODE": 168.62, "ARG_OF_PERICENTER": 84.0204, "MEAN_ANOMALY": 276.118, "EPHEMERIS_TYPE": 0, "CLASSIFICATION_TYPE": "U", "NORAD_CAT_ID": 32376, "ELEMENT_SET_NO": 999, "REV_AT_EPOCH": 97446, "BSTAR": 0.0001241313, "MEAN_MOTION_DOT": 9.36e-06, "MEAN_MOTION_DDOT": 0}, "tle": {"line1": "1 32376U 07059A   25347.30461653  .00000936  00000+0  12413-3 0  9992", "line2": "2 32376  97.8811 168.6200 0001499  84.0204 276.1180 14.82167811974465"}}, "geometry": {"type": "Point", "coordinates": [162.41361298859687, 40.01905233937445]}}, {"type": "Feature", "properties": {"norad_id": 32382, "name": "RADARSAT-2", "group": "resource", "lat": 26.080903686294477, "lon": 176.59777002051067, "alt_km": 790.5536388888404, "timestamp": "2025-12-13T18:50:04.084970+00:00", "meta": {"OBJECT_NAME": "RADARSAT-2", "OBJECT_ID": "2007-061A", "EPOCH": "2025-12-13T08:02:35.868768", "MEAN_MOTION": 14.29982544, "ECCENTRICITY": 0.0001122, "INCLINATION": 98.5803, "RA_OF_ASC_NODE": 351.9165, "ARG_OF_PERICENTER": 85.5926, "MEAN_ANOMALY": 274.5384, "EPHEMERIS_TYPE": 0, "CLASSIFICATION_TYPE": "U", "NORAD_CAT_ID": 32382, "ELEMENT_SET_NO": 999, "REV_AT_EPOCH": 93939, "BSTAR": 0.0001052507, "MEAN_MOTION_DOT": 2.28e-06, "MEAN_MOTION_DDOT": 0}, "tle": {"line1": "1 32382U 07061A   25347.33513737  .00000228  00000+0  10525-3 0  9992", "line2": "2 32382  98.5803 351.9165 0001122  85.5926 274.5384 14.29982544939398"}}, "geometry": {"type": "Point", "coordinates": [176.59777002051067, 26.080903686294477]}}, {"type": "Feature", "properties": {"norad_id": 32783, "name": "CARTOSAT-2A", "group": "resource", "lat": 11.622610095175075, "lon": -140.81038044320317, "alt_km": 642.1270765332783, "timestamp": "2025-12-13T18:50:04.084981+00:00", "meta": {"OBJECT_NAME": "CARTOSAT-2A", "OBJECT_ID": "2008-021A", "EPOCH": "2025-12-13T06:42:37.133280", "MEAN_MOTION": 14.78938692, "ECCENTRICITY": 0.0011818, "INCLINATION": 97.793, "RA_OF_ASC_NODE": 37.0861, "ARG_OF_PERICENTER": 3.0351, "MEAN_ANOMALY": 357.093, "EPHEMERIS_TYPE": 0, "CLASSIFICATION_TYPE": "U", "NORAD_CAT_ID": 32783, "ELEMENT_SET_NO": 999, "REV_AT_EPOCH": 95132, "BSTAR": 0.0001738853, "MEAN_MOTION_DOT": 1.234e-05, "MEAN_MOTION_DDOT": 0}, "tle": {"line1": "1 32783U 08021A   25347.27959645  .00001234  00000+0  17389-3 0  9992", "line2": "2 32783  97.7930  37.0861 0011818   3.0351 357.0930 14.78938692951320"}}, "geometry": {"type": "Point", "coordinates": [-140.81038044320317, 11.622610095175075]}}, {"type": "Feature", "properties": {"norad_id": 33320, "name": "HUANJING 1A (HJ-1A)", "group": "resource", "lat": 49.63652355182263, "lon": -33.06407002945512, "alt_km": 600.8656714451472, "timestamp": "2025-12-13T18:50:04.084992+00:00", "meta": {"OBJECT_NAME": "HUANJING 1A (HJ-1A)", "OBJECT_ID": "2008-041A", "EPOCH": "2025-12-13T07:16:38.373888", "MEAN_MOTION": 14.83398099, "ECCENTRICITY": 0.00200719, "INCLINATION": 97.6544, "RA_OF_ASC_NODE": 335.5783, "ARG_OF_PERICENTER": 32.5253, "MEAN_ANOMALY": 327.7194, "EPHEMERIS_TYPE": 0, "CLASSIFICATION_TYPE": "U", "NORAD_CAT_ID": 33320, "ELEMENT_SET_NO": 999, "REV_AT_EPOCH": 93084, "BSTAR": 0.00032134814, "MEAN_MOTION_DOT": 2.595e-05, "MEAN_MOTION_DDOT": 0}, "tle": {"line1": "1 33320U 08041A   25347.30322192  .00002595  00000+0  32135-3 0  9994", "line2": "2 33320  97.6544 335.5783 0020071  32.5253 327.7194 14.83398099930843"}}, "geometry": {"type": "Point", "coordinates": [-33.06407002945512, 49.63652355182263]}}, {"type": "Feature", "properties": {"norad_id": 33321, "name": "HUANJING 1B (HJ-1B)", "group": "resource", "lat": -82.29751159436609, "lon": 76.75631914593886, "alt_km": 653.3499282287812, "timestamp": "2025-12-13T18:50:04.085004+00:00", "meta": {"OBJECT_NAME": "HUANJING 1B (HJ-1B)", "OBJECT_ID": "2008-041B", "EPOCH": "2025-12-13T06:17:21.259968", "MEAN_MOTION": 14.82824604, "ECCENTRICITY": 0.00381571, "INCLINATION": 97.6403, "RA_OF_ASC_NODE": 339.2345, "ARG_OF_PERICENTER": 74.047, "MEAN_ANOMALY": 286.4943, "EPHEMERIS_TYPE": 0, "CLASSIFICATION_TYPE": "U", "NORAD_CAT_ID": 33321, "ELEMENT_SET_NO": 999, "REV_AT_EPOCH": 93085, "BSTAR": 0.00032822487, "MEAN_MOTION_DOT": 2.638e-05, "MEAN_MOTION_DDOT": 0}, "tle": {"line1": "1 33321U 08041B   25347.26205162  .00002638  00000+0  32822-3 0  9998", "line2": "2 33321  97.6403 339.2345 0038157  74.0470 286.4943 14.82824604930858"}}, "geometry": {"type": "Point", "coordinates": [76.75631914593886, -82.29751159436609]}}, {"type": "Feature", "properties": {"norad_id": 33331, "name": "GEOEYE 1", "group": "resource", "lat": -7.785753404681732, "lon": -122.06685596616842, "alt_km": 681.4333614847355, "timestamp": "2025-12-13T18:50:04.085018+00:00", "meta": {"OBJECT_NAME": "GEOEYE 1", "OBJECT_ID": "2008-042A", "EPOCH": "2025-12-13T06:30:13.972320", "MEAN_MOTION": 14.64814364, "ECCENTRICITY": 0.00027313, "INCLINATION": 98.1252, "RA_OF_ASC_NODE": 58.5451, "ARG_OF_PERICENTER": 273.8714, "MEAN_ANOMALY": 86.2177, "EPHEMERIS_TYPE": 0, "CLASSIFICATION_TYPE": "U", "NORAD_CAT_ID": 33331, "ELEMENT_SET_NO": 999, "REV_AT_EPOCH": 92293, "BSTAR": 0.00020100289, "MEAN_MOTION_DOT": 1.025e-05, "MEAN_MOTION_DDOT": 0}, "tle": {"line1": "1 33331U 08042A   25347.27099505  .00001025  00000+0  20100-3 0  9998", "line2": "2 33331  98.1252  58.5451 0002731 273.8714  86.2177 14.64814364922932"}}, "geometry": {"type": "Point", "coordinates": [-122.06685596616842, -7.785753404681732]}}, {"type": "Feature", "properties": {"norad_id": 33396, "name": "THEOS", "group": "resource", "lat": -55.70681424555854, "lon": -146.95677579450754, "alt_km": 832.7097469159362, "timestamp": "2025-12-13T18:50:04.085032+00:00", "meta": {"OBJECT_NAME": "THEOS", "OBJECT_ID": "2008-049A", "EPOCH": "2025-12-13T07:34:40.304928", "MEAN_MOTION": 14.20096027, "ECCENTRICITY": 0.00011645, "INCLINATION": 98.5864, "RA_OF_ASC_NODE": 45.3879, "ARG_OF_PERICENTER": 95.6762, "MEAN_ANOMALY": 264.4547, "EPHEMERIS_TYPE": 0, "CLASSIFICATION_TYPE": "U", "NORAD_CAT_ID": 33396, "ELEMENT_SET_NO": 999, "REV_AT_EPOCH": 89158, "BSTAR": 1.7710308e-05, "MEAN_MOTION_DOT": -5e-08, "MEAN_MOTION_DDOT": 0}, "tle": {"line1": "1 33396U 08049A   25347.31574427 -.00000005  00000+0  17710-4 0  9994", "line2": "2 33396  98.5864  45.3879 0001164  95.6762 264.4547 14.20096027891583"}}, "geometry": {"type": "Point", "coordinates": [-146.95677579450754, -55.70681424555854]}}, {"type": "Feature", "properties": {"norad_id": 33412, "name": "COSMO-SKYMED 3", "group": "resource", "lat": -73.69445855067897, "lon": -133.67623878703117, "alt_km": 562.2605473556914, "timestamp": "2025-12-13T18:50:04.085043+00:00", "meta": {"OBJECT_NAME": "COSMO-SKYMED 3", "OBJECT_ID": "2008-054A", "EPOCH": "2025-12-13T08:00:14.373216", "MEAN_MOTION": 15.05364359, "ECCENTRICITY": 0.00160788, "INCLINATION": 97.8473, "RA_OF_ASC_NODE": 197.7348, "ARG_OF_PERICENTER": 171.5785, "MEAN_ANOMALY": 188.5714, "EPHEMERIS_TYPE": 0, "CLASSIFICATION_TYPE": "U", "NORAD_CAT_ID": 33412, "ELEMENT_SET_NO": 999, "REV_AT_EPOCH": 92896, "BSTAR": 0.00043513291, "MEAN_MOTION_DOT": 6.189e-05, "MEAN_MOTION_DDOT": 0}, "tle": {"line1": "1 33412U 08054A   25347.33349969  .00006189  00000+0  43513-3 0  9999", "line2": "2 33412  97.8473 197.7348 0016078 171.5785 188.5714 15.05364359928967"}}, "geometry": {"type": "Point", "coordinates": [-133.67623878703117, -73.69445855067897]}}, {"type": "Feature", "properties": {"norad_id": 33446, "name": "YAOGAN-4", "group": "resource", "lat": -0.33516945469735937, "lon": 97.82720638171998, "alt_km": 631.1338409989958, "timestamp": "2025-12-13T18:50:04.085053+00:00", "meta": {"OBJECT_NAME": "YAOGAN-4", "OBJECT_ID": "2008-061A", "EPOCH": "2025-12-13T06:41:08.234592", "MEAN_MOTION": 14.8268628, "ECCENTRICITY": 0.00135434, "INCLINATION": 97.9181, "RA_OF_ASC_NODE": 277.3727, "ARG_OF_PERICENTER": 321.4814, "MEAN_ANOMALY": 38.5431, "EPHEMERIS_TYPE": 0, "CLASSIFICATION_TYPE": "U", "NORAD_CAT_ID": 33446, "ELEMENT_SET_NO": 999, "REV_AT_EPOCH": 91811, "BSTAR": 0.00032331381, "MEAN_MOTION_DOT": 2.558e-05, "MEAN_MOTION_DDOT": 0}, "tle": {"line1": "1 33446U 08061A   25347.27856753  .00002558  00000+0  32331-3 0  9993", "line2": "2 33446  97.9181 277.3727 0013543 321.4814  38.5431 14.82686280918110"}}, "geometry": {"type": "Point", "coordinates": [97.82720638171998, -0.33516945469735937]}}]}